#dP2022  6 30  0 15  0.00000000      95 __u+U ITR00 FIT  IAC
## 2216 346500.00000000   900.00000000 59760 0.0104166666667
+  116   C06C07C08C09C10C11C12C13C14C16C19C20C21C22C23C24C25
+        C26C27C28C29C30C32C33C34C35C36C37C38C39C40C41C42C43
+        C44C45C46E01E02E03E04E05E07E08E09E10E11E12E13E14E15
+        E18E19E21E24E25E26E27E30E31E33E34E36G01G02G03G04G05
+        G06G07G08G09G10G11G12G13G14G15G16G17G18G19G20G21G22
+        G23G24G25G26G27G28G29G30G31G32J02J03R01R02R03R04R05
+        R07R08R09R11R12R13R14R15R17R18R19R20R21R24  0  0  0
++         8  9 10  8  8  8  7 11  8  8  6  7  7  7  7  8  9
++         6  8  8  7  8  9  9  8  7  7  8  9  5  8  7  9  7
++         7  7  7  7  8  7  7  7  7  7  5  8  8  7  8  6  6
++         8  7  6  6  7  7  7  7  7  7  7  6  5  7  7  6  8
++         7  7  4  7  5  6  8  7  6  6  6  7  7  7  6  5  5
++         7  6  6  6  7  6  7  4  6  7 10  9  9  8  8  7  8
++         7  8  7  7  7  9  8  6  7  8  7  8  6  8  0  0  0
%c M  cc GPS ccc cccc cccc cccc cccc ccccc ccccc ccccc ccccc
%c cc cc ccc ccc cccc cccc cccc cccc ccccc ccccc ccccc ccccc
%f  0.0000000  0.000000000  0.00000000000  0.000000000000000
%f  0.0000000  0.000000000  0.00000000000  0.000000000000000
%i    0    0    0    0      0      0      0      0         0
%i    0    0    0    0      0      0      0      0         0
/* INFORMATION & ANALYSIS CENTER (IAC)      ULTRA-RAPID DATA
/* S/V CLOCKS ARE ALIGNED TO GNSS TIME                      
/* G:C1WC2W R:C1PC2P E:C1XC5X C:C2IC6I J:C1CC2S             
/* PCV:IGS14_2196 OL/AL:FES2004  NONE     YN ORB:CoN CLK:CoN
*  2022 06 30  9 15  0.00000000
PC06 -14819.832077  38764.075702  -8066.953602    294.976791
PC07   -742.346939  33608.104109 -25359.748942   -366.233976
PC08 -11786.226754  20508.731783  34877.683375    384.811760
PC09 -11261.707609  38120.125903 -14413.171210   -931.988769
PC10   5038.175362  35472.233621 -21549.047887    122.587756
PC11 -17965.433005   6347.840864 -20318.705315    445.791212
PC12 -10284.026721 -12914.876506 -22472.922498   -587.772886
PC13  -5591.468230  22459.703076  35332.635734     10.546414
PC14 -19489.047617  -3861.894161  19641.880379    521.917464
PC16 -16751.575536  38477.335145  -5176.842430    141.915937
PC19  14802.192900  -6192.241809 -22804.385902   -108.850480
PC20  20720.015499  11605.458206 -14612.186073   -964.508100
PC21 -14533.747529 -23657.188497  -2939.070598   -584.520802
PC22     91.994188 -21205.283563 -18156.566456   -963.036174
PC23 -10180.891479  15845.749126 -20580.372005   -939.051457
PC24 -25555.692615  -4846.127984  10078.560728   -968.535798
PC25 -24987.932261   9102.037240  -8428.999305   -714.371175
PC26 -12220.501018 -13706.266976  20996.053619    716.361403
PC27   4432.215042  20517.760050  18369.225327    747.002494
PC28  -9307.573808  26032.463322   3776.132524     84.602454
PC29  17499.442319 -16768.885808  13821.674868    575.401625
PC30  15763.247810   3343.973104  22770.574719    500.642427
PC32  14637.462124  23555.044836   3042.379835   -972.958640
PC33 -14882.909793   6175.294519  22791.385763    -53.541397
PC34 -16219.415631  -2183.044269 -22620.819754   -369.315989
PC35   9119.838071 -26221.159369  -2679.874610    344.232844
PC36  25457.292540  -8222.814821   7972.494145   -971.269166
PC37  10673.554317  14376.026196 -21387.709532   -912.231716
PC38 -19819.112398  21529.569229  30330.861464      6.881581
PC39 -17962.259428  38249.475464    698.256620 999999.999999
PC40  -4877.167941  29268.641149 -29905.480693    281.715935
PC41   -538.569488  20937.743393  18488.789379    -42.209351
PC42 -20816.288748 -12518.492363  13804.137232   -956.323559
PC43 -17777.587594  16053.587930 -14347.355429      0.327108
PC44  -5163.908732 -20497.048332 -18220.146369    708.911061
PC45   9847.777863 -15803.073874  20798.722948    796.818531
PC46  26267.766462   3727.830569  -8698.490008   -406.352613
PE01 -27604.284577 -10219.943921  -3115.696833   -505.950859
PE02  27634.401116  10101.080391   3292.104028    309.007787
PE03  16959.549076   8616.744660 -22671.909085   -574.035602
PE04 -14294.865968  13503.501494  22133.434782  -1061.055566
PE05   9701.642531  26156.766689  -9879.042805   -167.319661
PE07   3064.648403 -28212.991475  -8430.094847   -683.116271
PE08  14029.412657 -13770.507950 -22129.097018   -555.367211
PE09  -2925.997158  28206.355892   8461.724513   -571.091827
PE10 -20439.871337  20352.902548   6620.076415   -523.047675
PE11 -12375.581180  21744.446326  15811.247699   3175.844516
PE12 -24910.383597  15714.358387  -3052.606643    -37.298132
PE13  12969.955011 -21762.999900 -15308.196626    429.640006
PE14  -2056.637125 -30470.352472  -4844.425318  -1792.848140
PE15  24890.945066 -15691.915751   3202.212379    736.296183
PE18  -5795.229136  24637.514550  -4551.636839  -1269.611410
PE19 -16432.847628 -11419.061150  21822.206873  -5227.418632
PE21 -18277.070084 -18653.260357  13939.592739   -743.083210
PE24  -3477.663621  16636.702147 -24245.177164   -698.742602
PE25  18045.814338  18707.878138 -14152.705588   -579.329554
PE26  -7438.306242 -14572.865903 -24671.507861  -1321.890294
PE27   2164.543913 -17034.610959  24115.649909   -333.802411
PE30  21833.289050  -4654.365520  19436.584991   -633.875585
PE31 -21137.220504   5401.983224 -19995.929384   -499.048138
PE33 -22072.076870    399.023027 -19726.440167   -455.074325
PE34  22172.764466   -616.582129  19590.458775   -524.635220
PE36   6451.493248  15016.194308  24673.802754   -395.331093
PG01   5904.716420 -17651.412834 -19111.560195    330.975931
PG02 -21334.990324  15924.502495   1727.651377   -652.005584
PG03  -3979.017186 -17699.136889 -19555.569283   -293.820085
PG04   1397.372397 -26469.268258   -497.086815   -151.316428
PG05 -11141.119421  10937.619949  21334.631221    -87.288007
PG06 -23356.674984   4045.389112 -12003.346786    364.980014
PG07 -11076.504402 -11533.989330  21667.800595    320.850170
PG08   5514.615359 -24338.761943   8517.899169 999999.999999
PG09  -6912.106725 -23866.543624   9271.616899   -323.573744
PG10  23950.614696  11337.574414  -3300.124227   -474.292277
PG11 -23468.357208  12380.857149    835.575820    -12.124077
PG12   -567.928756  16896.915427 -20779.265443   -238.938619
PG13 -12902.908221  17457.087592  15026.412910    339.511930
PG14 -23200.061420 -12841.576540  -2281.035971   -111.896356
PG15  -2879.679517  24869.157845   7965.022080    -49.089889
PG16  16617.675047  -4997.211118  19963.606858   -512.317413
PG17 -12982.345388 -10360.117956 -20280.651546    631.323527
PG18  10293.317104  11289.713412  21726.981050    127.505471
PG19 -14950.875225   -977.816926 -22183.125333    177.553339
PG20 -20750.330250   4270.963956  15881.177590    507.269310
PG21  14309.949768 -18836.681720 -10707.525114    161.362384
PG22  15118.394015  -2416.384831 -21269.953022    284.444812
PG23  19829.337304  16322.966745   6980.045266    -30.571344
PG24  -8524.531197  19767.084686 -15588.285108    208.949787
PG25  13666.870267  18774.466662 -13420.651581    343.645043
PG26  23242.766855   1160.250054  12995.750918    215.562498
PG27  12464.317006 -14325.946101  18186.308272    219.091544
PG28 -22858.422492  -7543.524678 -10452.698737    328.449897
PG29   4853.372306  24017.599010  10102.629262   -528.913571
PG30 -19589.926139  -4110.425154  17669.856549   -532.710589
PG31  24448.338656  -5405.894778  -9661.143445   -183.743002
PG32  14659.479878   7191.661714 -20834.466614   -163.923524
PJ02 -27960.279080  14963.083297 -23228.724938     -1.043028
PJ03 -24463.087055  34102.737762   -513.904924     -3.074333
PR01 -14364.577961 -19017.843804   9118.025412     10.830067
PR02 -12490.644116  -2225.708072  22163.056834    522.884585
PR03  -3710.248091  14886.074542  20441.879413     59.475581
PR04   6978.034242  23382.299344   7476.939818    149.021087
PR05  13774.371344  19192.369879  -9636.957573     95.567602
PR07   3250.819044 -15409.894212 -20010.153443     37.267450
PR08  -7167.600762 -23369.222106  -7191.885764    -65.850681
PR09  24979.470233   -849.407017   4908.179174     63.341183
PR11  -3292.130642 -11036.835201  22774.747890     34.813876
PR12 -20787.349599  -7702.193129  12636.448462     19.206898
PR13 -25262.521602     -9.375107  -3556.008024    -24.010729
PR14 -14606.040640   8236.520802 -19213.893813     25.155937
PR15   4148.179331  11179.486976 -22524.466290     95.096062
PR17 -15183.536195  20418.716223  -1450.092247    539.460630
PR18  -6239.779747  19985.473066  14612.923833    122.088256
PR19   4985.737608  10205.017843  22830.866895   -194.451164
PR20  16225.049130  -8262.554415  17845.424855    -73.528633
PR21  14762.588948 -20821.148705   -123.504369   -313.472345
PR24 -16474.456569   9088.580368 -17205.998741 999999.999999
EOF
